[
  {
    "name": "ONEWEB-0654",
    "noradId": "55816",
    "line1": "1 55816U 23029W   26192.81101477 -.00000056  00000+0 -18528-3 0  9999",
    "line2": "2 55816  87.8974 284.7977 0001791  92.3617 267.7718 13.14502172162654"
  },
  {
    "name": "ONEWEB-0656",
    "noradId": "55817",
    "line1": "1 55817U 23029X   26193.58291999  .00000088  00000+0  18341-3 0  9990",
    "line2": "2 55817  87.9190 269.3701 0001972  85.5203 274.6156 13.20770719164506"
  },
  {
    "name": "ONEWEB-0657",
    "noradId": "55818",
    "line1": "1 55818U 23029Y   26193.24418316  .00000059  00000+0  11413-3 0  9999",
    "line2": "2 55818  87.9182 299.9844 0002301  81.1451 278.9943 13.19727284162213"
  },
  {
    "name": "ONEWEB-0658",
    "noradId": "55819",
    "line1": "1 55819U 23029Z   26192.86034248  .00000015  00000+0  45724-5 0  9991",
    "line2": "2 55819  87.9192 300.0385 0002306 107.9630 252.1754 13.19726051162170"
  },
  {
    "name": "ONEWEB-0660",
    "noradId": "55820",
    "line1": "1 55820U 23029AA  26192.78881775  .00000164  00000+0  40711-3 0  9993",
    "line2": "2 55820  87.8978 284.7987 0001877 107.5326 252.6009 13.14501472162631"
  },
  {
    "name": "ONEWEB-0661",
    "noradId": "55821",
    "line1": "1 55821U 23029AB  26193.20429944 -.00000181  00000+0 -52193-3 0  9996",
    "line2": "2 55821  87.8959 284.7561 0001820 104.4344 255.6988 13.14502739162673"
  },
  {
    "name": "ONEWEB-0662",
    "noradId": "55822",
    "line1": "1 55822U 23029AC  26193.23921282  .00011555  00000+0  31132-1 0  9995",
    "line2": "2 55822  87.8941 284.7555 0002305 102.6107 257.5281 13.14419407162726"
  },
  {
    "name": "ONEWEB-0663",
    "noradId": "55823",
    "line1": "1 55823U 23029AD  26192.62997024  .00000073  00000+0  14670-3 0  9998",
    "line2": "2 55823  87.9187 269.6323 0002071 109.0050 251.1308 13.20871241164371"
  },
  {
    "name": "ONEWEB-0664",
    "noradId": "55824",
    "line1": "1 55824U 23029AE  26192.73614620 -.00000035  00000+0 -11908-3 0  9990",
    "line2": "2 55824  87.9178 269.5883 0001633 100.1199 260.0118 13.20771535164385"
  },
  {
    "name": "ONEWEB-0665",
    "noradId": "55825",
    "line1": "1 55825U 23029AF  26193.20112759 -.00000160  00000+0 -46662-3 0  9994",
    "line2": "2 55825  87.8963 284.7371 0001990 110.2340 249.9004 13.14502465162693"
  },
  {
    "name": "ONEWEB-0666",
    "noradId": "55826",
    "line1": "1 55826U 23029AG  26192.72939531 -.00000028  00000+0 -10041-3 0  9991",
    "line2": "2 55826  87.9177 269.5797 0002648  85.7725 274.3711 13.20772487164395"
  },
  {
    "name": "ONEWEB-0667",
    "noradId": "55827",
    "line1": "1 55827U 23029AH  26193.17888389  .00000032  00000+0  47125-4 0  9993",
    "line2": "2 55827  87.9189 269.4525 0001914 104.0680 256.0666 13.20773298164440"
  },
  {
    "name": "ONEWEB-0669",
    "noradId": "55828",
    "line1": "1 55828U 23029AJ  26193.17382637  .00000096  00000+0  20326-3 0  9992",
    "line2": "2 55828  87.9184 269.4621 0001752  85.6690 274.4643 13.20773504164447"
  },
  {
    "name": "ONEWEB-0670",
    "noradId": "55829",
    "line1": "1 55829U 23029AK  26193.17892933  .00000208  00000+0  52560-3 0  9998",
    "line2": "2 55829  87.8958 284.7590 0001646 103.3443 256.7870 13.14501895162715"
  },
  {
    "name": "ONEWEB-0671",
    "noradId": "55830",
    "line1": "1 55830U 23029AL  26193.23467758  .00000103  00000+0  22618-3 0  9995",
    "line2": "2 55830  87.9185 299.9874 0001947 105.2600 254.8748 13.19726774162200"
  },
  {
    "name": "ONEWEB-0672",
    "noradId": "55831",
    "line1": "1 55831U 23029AM  26193.16878514  .00000099  00000+0  21043-3 0  9999",
    "line2": "2 55831  87.9189 269.4569 0002133  92.2204 267.9173 13.20770115164446"
  },
  {
    "name": "ONEWEB-0673",
    "noradId": "55832",
    "line1": "1 55832U 23029AN  26193.28760547  .00002356  00000+0  58594-2 0  9997",
    "line2": "2 55832  87.9183 299.9718 0002154  95.8200 264.3178 13.19640913162212"
  },
  {
    "name": "ONEWEB-0674",
    "noradId": "55833",
    "line1": "1 55833U 23029AP  26193.22331938  .00000033  00000+0  54921-4 0  9992",
    "line2": "2 55833  87.8957 284.7271 0001659 102.7110 257.4206 13.14501983162701"
  },
  {
    "name": "ONEWEB-0675",
    "noradId": "55834",
    "line1": "1 55834U 23029AQ  26193.53005004  .00000001  00000+0 -30147-4 0  9999",
    "line2": "2 55834  87.9187 299.9305 0002241  97.8645 262.2742 13.19723794162260"
  },
  {
    "name": "ONEWEB-0720",
    "noradId": "55835",
    "line1": "1 55835U 23029AR  26193.21888626  .00000010  00000+0 -65444-5 0  9993",
    "line2": "2 55835  87.9189 299.9912 0002062 107.0828 253.0531 13.19726294162144"
  },
  {
    "name": "ONEWEB-0537",
    "noradId": "56046",
    "line1": "1 56046U 23043A   26193.57758690  .00000043  00000+0  80115-4 0  9996",
    "line2": "2 56046  87.9082 223.7278 0002232  88.3924 271.7463 13.16593910162301"
  },
  {
    "name": "ONEWEB-0538",
    "noradId": "56047",
    "line1": "1 56047U 23043B   26193.57125108 -.00000036  00000+0 -12869-3 0  9993",
    "line2": "2 56047  87.9086 223.7313 0002342  96.1972 263.9426 13.16593955162310"
  },
  {
    "name": "ONEWEB-0546",
    "noradId": "56048",
    "line1": "1 56048U 23043C   26193.55858493  .00000000  00000+0 -34757-4 0  9993",
    "line2": "2 56048  87.9087 223.7339 0002344  79.1418 280.9977 13.16594195162304"
  },
  {
    "name": "ONEWEB-0547",
    "noradId": "56049",
    "line1": "1 56049U 23043D   26193.53071937  .00000057  00000+0  10594-3 0  9995",
    "line2": "2 56049  87.9239 238.9314 0002219 100.0825 260.0560 13.21826952161572"
  },
  {
    "name": "ONEWEB-0548",
    "noradId": "56050",
    "line1": "1 56050U 23043E   26193.50712052 -.00000005  00000+0 -45916-4 0  9996",
    "line2": "2 56050  87.9074 223.7409 0001596  92.2249 267.9065 13.16594475162299"
  },
  {
    "name": "ONEWEB-0549",
    "noradId": "56051",
    "line1": "1 56051U 23043F   26193.52483615  .00000056  00000+0  10441-3 0  9997",
    "line2": "2 56051  87.9232 238.9380 0002439  98.3208 261.8203 13.21827225161576"
  },
  {
    "name": "ONEWEB-0550",
    "noradId": "56052",
    "line1": "1 56052U 23043G   26193.58708560 -.00000002  00000+0 -35801-4 0  9994",
    "line2": "2 56052  87.9233 238.9238 0001832  94.7088 265.4255 13.21826851161584"
  },
  {
    "name": "ONEWEB-0551",
    "noradId": "56053",
    "line1": "1 56053U 23043H   26193.55838487  .00000079  00000+0  17598-3 0  9998",
    "line2": "2 56053  87.8987 254.1713 0002324 103.4092 256.7297 13.15547424159730"
  },
  {
    "name": "ONEWEB-0552",
    "noradId": "56054",
    "line1": "1 56054U 23043J   26193.58202378 -.00000022  00000+0 -85574-4 0  9996",
    "line2": "2 56054  87.9227 238.9296 0002006 103.0404 257.0954 13.21826031161586"
  },
  {
    "name": "ONEWEB-0553",
    "noradId": "56055",
    "line1": "1 56055U 23043K   26193.56491734  .00000008  00000+0 -11604-4 0  9997",
    "line2": "2 56055  87.9085 223.7329 0002104  85.8131 274.3240 13.16593626162318"
  },
  {
    "name": "ONEWEB-0554",
    "noradId": "56056",
    "line1": "1 56056U 23043L   26193.55225459  .00000037  00000+0  62147-4 0  9995",
    "line2": "2 56056  87.9072 223.7452 0001503  88.2452 271.8851 13.16594289162290"
  },
  {
    "name": "ONEWEB-0555",
    "noradId": "56057",
    "line1": "1 56057U 23043M   26193.59024569  .00000032  00000+0  50259-4 0  9995",
    "line2": "2 56057  87.9078 223.7260 0002257  79.3024 280.8361 13.16593636162300"
  },
  {
    "name": "ONEWEB-0557",
    "noradId": "56058",
    "line1": "1 56058U 23043N   26193.52849903  .00000115  00000+0  26844-3 0  9990",
    "line2": "2 56058  87.9079 223.7480 0001434  56.6829 303.4439 13.16593578162294"
  },
  {
    "name": "ONEWEB-0558",
    "noradId": "56059",
    "line1": "1 56059U 23043P   26193.57530144 -.00000012  00000+0 -61184-4 0  9995",
    "line2": "2 56059  87.9240 238.9253 0002390  98.5702 261.5702 13.21825494161598"
  },
  {
    "name": "ONEWEB-0559",
    "noradId": "56060",
    "line1": "1 56060U 23043Q   26193.56352312  .00000049  00000+0  86088-4 0  9993",
    "line2": "2 56060  87.9239 238.9239 0002247 100.0702 260.0686 13.21823674161607"
  },
  {
    "name": "ONEWEB-0566",
    "noradId": "56061",
    "line1": "1 56061U 23043R   26193.10261641  .00000053  00000+0  96007-4 0  9995",
    "line2": "2 56061  87.9238 239.0138 0002329 102.9616 257.1778 13.21823834161521"
  },
  {
    "name": "ONEWEB-0568",
    "noradId": "56062",
    "line1": "1 56062U 23043S   26193.54591891  .00000084  00000+0  18485-3 0  9994",
    "line2": "2 56062  87.9079 223.7339 0002133  86.5318 273.6057 13.16595975162314"
  },
  {
    "name": "ONEWEB-0574",
    "noradId": "56063",
    "line1": "1 56063U 23043T   26193.55008319  .00000024  00000+0  26900-4 0  9990",
    "line2": "2 56063  87.9237 238.9303 0001832 103.3856 256.7483 13.21826064161620"
  },
  {
    "name": "ONEWEB-0575",
    "noradId": "56064",
    "line1": "1 56064U 23043U   26193.53958032  .00000118  00000+0  27528-3 0  9995",
    "line2": "2 56064  87.9079 223.7316 0001788  83.1796 276.9538 13.16595338162301"
  },
  {
    "name": "ONEWEB-0576",
    "noradId": "56065",
    "line1": "1 56065U 23043V   26193.52057501  .00000040  00000+0  70312-4 0  9990",
    "line2": "2 56065  87.9078 223.7447 0001920  91.3121 268.8230 13.16595013162294"
  },
  {
    "name": "ONEWEB-0577",
    "noradId": "56066",
    "line1": "1 56066U 23043W   26193.52691670  .00000119  00000+0  27657-3 0  9992",
    "line2": "2 56066  87.9081 223.7403 0001357  79.7803 280.3481 13.16595725162323"
  },
  {
    "name": "ONEWEB-0578",
    "noradId": "56067",
    "line1": "1 56067U 23043X   26193.53662655  .00000098  00000+0  20596-3 0  9996",
    "line2": "2 56067  87.9240 238.9285 0002169  87.3955 272.7428 13.21826173161585"
  },
  {
    "name": "ONEWEB-0579",
    "noradId": "56068",
    "line1": "1 56068U 23043Y   26193.60388888  .00000059  00000+0  11252-3 0  9994",
    "line2": "2 56068  87.9259 238.9115 0002167 106.9274 253.2097 13.21827464161601"
  }
]